KUIPER-00408            
1 68924U 26098F   26201.48631024 -.00021796  00000+0 -83904-3 0  9996
2 68924  51.8732 270.8284 0014612 277.8715  82.0608 15.25332521 12410
KUIPER-00409            
1 68925U 26098G   26202.25003472 -.00037536  00000+0 -34876-2 0  9995
2 68925  51.8951 267.7759 0006080 294.9498 292.5181 14.93898340  4374
KUIPER-00410            
1 68926U 26098H   26202.25003472 -.01600549  00000+0 -89615-1 0  9997
2 68926  51.8784 267.2992 0013490 272.0498 285.3080 15.16263739  5859
KUIPER-00412            
1 68927U 26098J   26202.25003472 -.00001492  00000+0 -32847-4 0  9997
2 68927  51.8783 262.6230 0003252  25.1651 317.5312 15.34442878  3178
KUIPER-00413            
1 68928U 26098K   26202.25003472 -.00046185  00000+0 -48568-2 0  9991
2 68928  51.8984 270.2416 0021592 287.5317 217.8438 14.88903437  4086
KUIPER-00414            
1 68929U 26098L   26202.22575672  .00001810  00000+0  26626-3 0  9991
2 68929  51.8983 280.2381 0001367 298.2121  61.8703 14.79943939 12349
KUIPER-00415            
1 68930U 26098M   26202.25003472 -.01280914  00000+0 -64543-1 0  9995
2 68930  51.8844 265.5877 0007158 264.2209  51.4355 15.19792203  5629
KUIPER-00416            
1 68931U 26098N   26201.52639125  .00000306  00000+0  18623-4 0  9998
2 68931  51.8749 265.9690 0001642   2.7661 357.3335 15.37600122 12486
KUIPER-00420            
1 68932U 26098P   26201.38377983  .00016572  00000+0  46305-3 0  9993
2 68932  51.8770 267.2659 0003813 333.5684  26.5108 15.36818522 12457
KUIPER-00421            
1 68933U 26098Q   26202.21544190  .00020101  00000+0  69743-3 0  9997
2 68933  51.8773 265.2867 0007337 273.8470  86.1675 15.29755614 12550
KUIPER-00425            
1 68934U 26098R   26202.25003472 -.00032015  00000+0 -25426-2 0  9993
2 68934  51.8907 268.3796 0010550 278.4145  76.3419 14.99860184  5820
KUIPER-00430            
1 68935U 26098S   26202.25003472 -.00042742  00000+0 -45242-2 0  9990
2 68935  51.8963 270.0985 0016618 283.3812  40.9041 14.88679090  4616
KUIPER-00431            
1 68936U 26098T   26202.25003472  .00001921  00000+0  28153-3 0  9996
2 68936  51.8982 272.5310 0000805 339.8639 106.1250 14.79829769  5283
KUIPER-00432            
1 68937U 26098U   26202.25003472 -.01674520  00000+0 -10254+0 0  9990
2 68937  51.8769 266.8161 0011095 269.9477 183.3368 15.13326852  4418
KUIPER-00434            
1 68938U 26098V   26202.25003472 -.00047974  00000+0 -50054-2 0  9992
2 68938  51.8960 267.8699 0001571 217.5625 122.4053 14.89427320  4308
KUIPER-00436            
1 68939U 26098W   26202.25003472 -.00038848  00000+0 -35463-2 0  9990
2 68939  51.8924 267.9821 0008481 271.3396 347.6695 14.94591502  3275
