{"fetched_at":"2026-07-21T17:53:03.255Z","source":"https://celestrak.org/NORAD/elements/gp.php?GROUP=kuiper&FORMAT=JSON","constellation":"kuiper","records":[{"OBJECT_NAME":"KUIPER-00408","OBJECT_ID":"2026-098F","EPOCH":"2026-07-20T11:40:17.204736","CLASSIFICATION_TYPE":"U","MEAN_MOTION":15.25332521,"ECCENTRICITY":0.00146124,"INCLINATION":51.8732,"RA_OF_ASC_NODE":270.8284,"ARG_OF_PERICENTER":277.8715,"MEAN_ANOMALY":82.0608,"EPHEMERIS_TYPE":0,"NORAD_CAT_ID":68924,"ELEMENT_SET_NO":999,"REV_AT_EPOCH":1241,"BSTAR":-0.00083903644,"MEAN_MOTION_DOT":-0.00021796,"MEAN_MOTION_DDOT":0},{"OBJECT_NAME":"KUIPER-00409","OBJECT_ID":"2026-098G","EPOCH":"2026-07-21T06:00:02.999808","CLASSIFICATION_TYPE":"U","MEAN_MOTION":14.9389834,"ECCENTRICITY":0.00060803,"INCLINATION":51.8951,"RA_OF_ASC_NODE":267.7759,"ARG_OF_PERICENTER":294.9498,"MEAN_ANOMALY":292.5181,"EPHEMERIS_TYPE":0,"NORAD_CAT_ID":68925,"ELEMENT_SET_NO":999,"REV_AT_EPOCH":437,"BSTAR":-0.0034875891,"MEAN_MOTION_DOT":-0.00037536,"MEAN_MOTION_DDOT":0},{"OBJECT_NAME":"KUIPER-00410","OBJECT_ID":"2026-098H","EPOCH":"2026-07-21T06:00:02.999808","CLASSIFICATION_TYPE":"U","MEAN_MOTION":15.16263739,"ECCENTRICITY":0.001349,"INCLINATION":51.8784,"RA_OF_ASC_NODE":267.2992,"ARG_OF_PERICENTER":272.0498,"MEAN_ANOMALY":285.308,"EPHEMERIS_TYPE":0,"NORAD_CAT_ID":68926,"ELEMENT_SET_NO":999,"REV_AT_EPOCH":585,"BSTAR":-0.089614509,"MEAN_MOTION_DOT":-0.01600549,"MEAN_MOTION_DDOT":0},{"OBJECT_NAME":"KUIPER-00412","OBJECT_ID":"2026-098J","EPOCH":"2026-07-21T06:00:02.999808","CLASSIFICATION_TYPE":"U","MEAN_MOTION":15.34442878,"ECCENTRICITY":0.00032526,"INCLINATION":51.8783,"RA_OF_ASC_NODE":262.623,"ARG_OF_PERICENTER":25.1651,"MEAN_ANOMALY":317.5312,"EPHEMERIS_TYPE":0,"NORAD_CAT_ID":68927,"ELEMENT_SET_NO":999,"REV_AT_EPOCH":317,"BSTAR":-0.000032847093,"MEAN_MOTION_DOT":-0.00001492,"MEAN_MOTION_DDOT":0},{"OBJECT_NAME":"KUIPER-00413","OBJECT_ID":"2026-098K","EPOCH":"2026-07-21T06:00:02.999808","CLASSIFICATION_TYPE":"U","MEAN_MOTION":14.88903437,"ECCENTRICITY":0.00215923,"INCLINATION":51.8984,"RA_OF_ASC_NODE":270.2416,"ARG_OF_PERICENTER":287.5317,"MEAN_ANOMALY":217.8438,"EPHEMERIS_TYPE":0,"NORAD_CAT_ID":68928,"ELEMENT_SET_NO":999,"REV_AT_EPOCH":408,"BSTAR":-0.0048568083,"MEAN_MOTION_DOT":-0.00046185,"MEAN_MOTION_DDOT":0},{"OBJECT_NAME":"KUIPER-00414","OBJECT_ID":"2026-098L","EPOCH":"2026-07-21T05:25:05.380608","CLASSIFICATION_TYPE":"U","MEAN_MOTION":14.79943939,"ECCENTRICITY":0.00013675,"INCLINATION":51.8983,"RA_OF_ASC_NODE":280.2381,"ARG_OF_PERICENTER":298.2121,"MEAN_ANOMALY":61.8703,"EPHEMERIS_TYPE":0,"NORAD_CAT_ID":68929,"ELEMENT_SET_NO":999,"REV_AT_EPOCH":1234,"BSTAR":0.00026626253,"MEAN_MOTION_DOT":0.0000181,"MEAN_MOTION_DDOT":0},{"OBJECT_NAME":"KUIPER-00415","OBJECT_ID":"2026-098M","EPOCH":"2026-07-21T06:00:02.999808","CLASSIFICATION_TYPE":"U","MEAN_MOTION":15.19792203,"ECCENTRICITY":0.0007158,"INCLINATION":51.8844,"RA_OF_ASC_NODE":265.5877,"ARG_OF_PERICENTER":264.2209,"MEAN_ANOMALY":51.4355,"EPHEMERIS_TYPE":0,"NORAD_CAT_ID":68930,"ELEMENT_SET_NO":999,"REV_AT_EPOCH":562,"BSTAR":-0.064543488,"MEAN_MOTION_DOT":-0.01280914,"MEAN_MOTION_DDOT":0},{"OBJECT_NAME":"KUIPER-00416","OBJECT_ID":"2026-098N","EPOCH":"2026-07-20T12:38:00.204000","CLASSIFICATION_TYPE":"U","MEAN_MOTION":15.37600122,"ECCENTRICITY":0.0001642,"INCLINATION":51.8749,"RA_OF_ASC_NODE":265.969,"ARG_OF_PERICENTER":2.7661,"MEAN_ANOMALY":357.3335,"EPHEMERIS_TYPE":0,"NORAD_CAT_ID":68931,"ELEMENT_SET_NO":999,"REV_AT_EPOCH":1248,"BSTAR":0.000018623,"MEAN_MOTION_DOT":0.00000306,"MEAN_MOTION_DDOT":0},{"OBJECT_NAME":"KUIPER-00420","OBJECT_ID":"2026-098P","EPOCH":"2026-07-20T09:12:38.577312","CLASSIFICATION_TYPE":"U","MEAN_MOTION":15.36818522,"ECCENTRICITY":0.0003813,"INCLINATION":51.877,"RA_OF_ASC_NODE":267.2659,"ARG_OF_PERICENTER":333.5684,"MEAN_ANOMALY":26.5108,"EPHEMERIS_TYPE":0,"NORAD_CAT_ID":68932,"ELEMENT_SET_NO":999,"REV_AT_EPOCH":1245,"BSTAR":0.00046305,"MEAN_MOTION_DOT":0.00016572,"MEAN_MOTION_DDOT":0},{"OBJECT_NAME":"KUIPER-00421","OBJECT_ID":"2026-098Q","EPOCH":"2026-07-21T05:10:14.180160","CLASSIFICATION_TYPE":"U","MEAN_MOTION":15.29755614,"ECCENTRICITY":0.00073373,"INCLINATION":51.8773,"RA_OF_ASC_NODE":265.2867,"ARG_OF_PERICENTER":273.847,"MEAN_ANOMALY":86.1675,"EPHEMERIS_TYPE":0,"NORAD_CAT_ID":68933,"ELEMENT_SET_NO":999,"REV_AT_EPOCH":1255,"BSTAR":0.00069743155,"MEAN_MOTION_DOT":0.00020101,"MEAN_MOTION_DDOT":0},{"OBJECT_NAME":"KUIPER-00425","OBJECT_ID":"2026-098R","EPOCH":"2026-07-21T06:00:02.999808","CLASSIFICATION_TYPE":"U","MEAN_MOTION":14.99860184,"ECCENTRICITY":0.00105503,"INCLINATION":51.8907,"RA_OF_ASC_NODE":268.3796,"ARG_OF_PERICENTER":278.4145,"MEAN_ANOMALY":76.3419,"EPHEMERIS_TYPE":0,"NORAD_CAT_ID":68934,"ELEMENT_SET_NO":999,"REV_AT_EPOCH":582,"BSTAR":-0.0025426218,"MEAN_MOTION_DOT":-0.00032015,"MEAN_MOTION_DDOT":0},{"OBJECT_NAME":"KUIPER-00430","OBJECT_ID":"2026-098S","EPOCH":"2026-07-21T06:00:02.999808","CLASSIFICATION_TYPE":"U","MEAN_MOTION":14.8867909,"ECCENTRICITY":0.00166187,"INCLINATION":51.8963,"RA_OF_ASC_NODE":270.0985,"ARG_OF_PERICENTER":283.3812,"MEAN_ANOMALY":40.9041,"EPHEMERIS_TYPE":0,"NORAD_CAT_ID":68935,"ELEMENT_SET_NO":999,"REV_AT_EPOCH":461,"BSTAR":-0.0045242395,"MEAN_MOTION_DOT":-0.00042742,"MEAN_MOTION_DDOT":0},{"OBJECT_NAME":"KUIPER-00431","OBJECT_ID":"2026-098T","EPOCH":"2026-07-21T06:00:02.999808","CLASSIFICATION_TYPE":"U","MEAN_MOTION":14.79829769,"ECCENTRICITY":0.00008058,"INCLINATION":51.8982,"RA_OF_ASC_NODE":272.531,"ARG_OF_PERICENTER":339.8639,"MEAN_ANOMALY":106.125,"EPHEMERIS_TYPE":0,"NORAD_CAT_ID":68936,"ELEMENT_SET_NO":999,"REV_AT_EPOCH":528,"BSTAR":0.00028152557,"MEAN_MOTION_DOT":0.00001921,"MEAN_MOTION_DDOT":0},{"OBJECT_NAME":"KUIPER-00432","OBJECT_ID":"2026-098U","EPOCH":"2026-07-21T06:00:02.999808","CLASSIFICATION_TYPE":"U","MEAN_MOTION":15.13326852,"ECCENTRICITY":0.00110951,"INCLINATION":51.8769,"RA_OF_ASC_NODE":266.8161,"ARG_OF_PERICENTER":269.9477,"MEAN_ANOMALY":183.3368,"EPHEMERIS_TYPE":0,"NORAD_CAT_ID":68937,"ELEMENT_SET_NO":999,"REV_AT_EPOCH":441,"BSTAR":-0.10253707,"MEAN_MOTION_DOT":-0.0167452,"MEAN_MOTION_DDOT":0},{"OBJECT_NAME":"KUIPER-00434","OBJECT_ID":"2026-098V","EPOCH":"2026-07-21T06:00:02.999808","CLASSIFICATION_TYPE":"U","MEAN_MOTION":14.8942732,"ECCENTRICITY":0.00015714,"INCLINATION":51.896,"RA_OF_ASC_NODE":267.8699,"ARG_OF_PERICENTER":217.5625,"MEAN_ANOMALY":122.4053,"EPHEMERIS_TYPE":0,"NORAD_CAT_ID":68938,"ELEMENT_SET_NO":999,"REV_AT_EPOCH":430,"BSTAR":-0.0050053721,"MEAN_MOTION_DOT":-0.00047974,"MEAN_MOTION_DDOT":0},{"OBJECT_NAME":"KUIPER-00436","OBJECT_ID":"2026-098W","EPOCH":"2026-07-21T06:00:02.999808","CLASSIFICATION_TYPE":"U","MEAN_MOTION":14.94591502,"ECCENTRICITY":0.00084817,"INCLINATION":51.8924,"RA_OF_ASC_NODE":267.9821,"ARG_OF_PERICENTER":271.3396,"MEAN_ANOMALY":347.6695,"EPHEMERIS_TYPE":0,"NORAD_CAT_ID":68939,"ELEMENT_SET_NO":999,"REV_AT_EPOCH":327,"BSTAR":-0.0035462863,"MEAN_MOTION_DOT":-0.00038848,"MEAN_MOTION_DDOT":0}]}
